{
  "type": "FeatureCollection",
  "features": [
    {
      "type": "Feature",
      "properties": {
        "norad_id": 36644,
        "name": "FENGYUN 1C DEB",
        "group": "fengyun-1c-debris",
        "lat": 46.603800854002166,
        "lon": 128.15492469509783,
        "alt_km": 1052.3456440192422,
        "timestamp": "2025-12-26T11:25:45.481642+00:00",
        "meta_object_name": "FENGYUN 1C DEB",
        "meta_object_id": "1999-025DXN",
        "meta_epoch": "2025-12-20T03:15:14.582880",
        "meta_mean_motion": 13.5921712,
        "meta_eccentricity": 0.0285778,
        "meta_inclination": 98.4233,
        "meta_ra_of_asc_node": 131.7114,
        "meta_arg_of_pericenter": 160.4918,
        "meta_mean_anomaly": 200.7431,
        "meta_ephemeris_type": 0,
        "meta_classification_type": "U",
        "meta_norad_cat_id": 36644,
        "meta_element_set_no": 999,
        "meta_rev_at_epoch": 61668,
        "meta_bstar": 0.0010197403,
        "meta_mean_motion_dot": 9.49e-06,
        "meta_mean_motion_ddot": 0,
        "tle_line1": "1 36644U 99025DXN 25354.13558545  .00000949  00000+0  10197-2 0  9994",
        "tle_line2": "2 36644  98.4233 131.7114 0285778 160.4918 200.7431 13.59217120616683"
      },
      "geometry": {
        "type": "Point",
        "coordinates": [
          128.15492469509783,
          46.603800854002166
        ]
      }
    },
    {
      "type": "Feature",
      "properties": {
        "norad_id": 36647,
        "name": "FENGYUN 1C DEB",
        "group": "fengyun-1c-debris",
        "lat": -49.633143580524305,
        "lon": -50.776238366474054,
        "alt_km": 786.0544681562033,
        "timestamp": "2025-12-26T11:25:45.481651+00:00",
        "meta_object_name": "FENGYUN 1C DEB",
        "meta_object_id": "1999-025DXR",
        "meta_epoch": "2025-12-17T15:22:01.202880",
        "meta_mean_motion": 13.88856712,
        "meta_eccentricity": 0.02401846,
        "meta_inclination": 96.1202,
        "meta_ra_of_asc_node": 130.6548,
        "meta_arg_of_pericenter": 285.5466,
        "meta_mean_anomaly": 71.9303,
        "meta_ephemeris_type": 0,
        "meta_classification_type": "U",
        "meta_norad_cat_id": 36647,
        "meta_element_set_no": 999,
        "meta_rev_at_epoch": 30480,
        "meta_bstar": 0.0022455743,
        "meta_mean_motion_dot": 3.394e-05,
        "meta_mean_motion_ddot": 0,
        "tle_line1": "1 36647U 99025DXR 25351.64029170  .00003394  00000+0  22456-2 0  9995",
        "tle_line2": "2 36647  96.1202 130.6548 0240184 285.5466  71.9303 13.88856712304807"
      },
      "geometry": {
        "type": "Point",
        "coordinates": [
          -50.776238366474054,
          -49.633143580524305
        ]
      }
    },
    {
      "type": "Feature",
      "properties": {
        "norad_id": 36652,
        "name": "FENGYUN 1C DEB",
        "group": "fengyun-1c-debris",
        "lat": -73.03790496397275,
        "lon": 113.92466624072168,
        "alt_km": 790.3664499514371,
        "timestamp": "2025-12-26T11:25:45.481660+00:00",
        "meta_object_name": "FENGYUN 1C DEB",
        "meta_object_id": "1999-025DXW",
        "meta_epoch": "2025-12-24T10:50:21.142176",
        "meta_mean_motion": 14.22897296,
        "meta_eccentricity": 0.00509453,
        "meta_inclination": 98.9403,
        "meta_ra_of_asc_node": 80.7986,
        "meta_arg_of_pericenter": 318.2449,
        "meta_mean_anomaly": 41.4845,
        "meta_ephemeris_type": 0,
        "meta_classification_type": "U",
        "meta_norad_cat_id": 36652,
        "meta_element_set_no": 999,
        "meta_rev_at_epoch": 64491,
        "meta_bstar": 0.0017394097,
        "meta_mean_motion_dot": 3.918e-05,
        "meta_mean_motion_ddot": 0,
        "tle_line1": "1 36652U 99025DXW 25358.45163359  .00003918  00000+0  17394-2 0  9992",
        "tle_line2": "2 36652  98.9403  80.7986 0050945 318.2449  41.4845 14.22897296644919"
      },
      "geometry": {
        "type": "Point",
        "coordinates": [
          113.92466624072168,
          -73.03790496397275
        ]
      }
    },
    {
      "type": "Feature",
      "properties": {
        "norad_id": 36657,
        "name": "FENGYUN 1C DEB",
        "group": "fengyun-1c-debris",
        "lat": 55.37780666886256,
        "lon": 139.47361738987453,
        "alt_km": 605.9140460601529,
        "timestamp": "2025-12-26T11:25:45.481669+00:00",
        "meta_object_name": "FENGYUN 1C DEB",
        "meta_object_id": "1999-025DYB",
        "meta_epoch": "2025-12-24T16:34:37.790688",
        "meta_mean_motion": 14.65600132,
        "meta_eccentricity": 0.01054242,
        "meta_inclination": 99.4135,
        "meta_ra_of_asc_node": 151.3338,
        "meta_arg_of_pericenter": 30.9032,
        "meta_mean_anomaly": 329.8315,
        "meta_ephemeris_type": 0,
        "meta_classification_type": "U",
        "meta_norad_cat_id": 36657,
        "meta_element_set_no": 999,
        "meta_rev_at_epoch": 66431,
        "meta_bstar": 0.000583973,
        "meta_mean_motion_dot": 3.376e-05,
        "meta_mean_motion_ddot": 0,
        "tle_line1": "1 36657U 99025DYB 25358.69071517  .00003376  00000+0  58397-3 0  9994",
        "tle_line2": "2 36657  99.4135 151.3338 0105424  30.9032 329.8315 14.65600132664316"
      },
      "geometry": {
        "type": "Point",
        "coordinates": [
          139.47361738987453,
          55.37780666886256
        ]
      }
    },
    {
      "type": "Feature",
      "properties": {
        "norad_id": 36659,
        "name": "FENGYUN 1C DEB",
        "group": "fengyun-1c-debris",
        "lat": 30.805615533830235,
        "lon": -169.35132208721006,
        "alt_km": 968.445618526026,
        "timestamp": "2025-12-26T11:25:45.481677+00:00",
        "meta_object_name": "FENGYUN 1C DEB",
        "meta_object_id": "1999-025DYD",
        "meta_epoch": "2025-12-18T07:09:04.054176",
        "meta_mean_motion": 13.87384482,
        "meta_eccentricity": 0.01357919,
        "meta_inclination": 99.8541,
        "meta_ra_of_asc_node": 356.081,
        "meta_arg_of_pericenter": 60.2917,
        "meta_mean_anomaly": 301.1674,
        "meta_ephemeris_type": 0,
        "meta_classification_type": "U",
        "meta_norad_cat_id": 36659,
        "meta_element_set_no": 999,
        "meta_rev_at_epoch": 60502,
        "meta_bstar": 0.00061832075,
        "meta_mean_motion_dot": 7.35e-06,
        "meta_mean_motion_ddot": 0,
        "tle_line1": "1 36659U 99025DYD 25352.29796359  .00000735  00000+0  61832-3 0  9998",
        "tle_line2": "2 36659  99.8541 356.0810 0135791  60.2917 301.1674 13.87384482605024"
      },
      "geometry": {
        "type": "Point",
        "coordinates": [
          -169.35132208721006,
          30.805615533830235
        ]
      }
    },
    {
      "type": "Feature",
      "properties": {
        "norad_id": 36664,
        "name": "FENGYUN 1C DEB",
        "group": "fengyun-1c-debris",
        "lat": 35.00666691559543,
        "lon": -149.25079077214372,
        "alt_km": 814.8687672784572,
        "timestamp": "2025-12-26T11:25:45.481686+00:00",
        "meta_object_name": "FENGYUN 1C DEB",
        "meta_object_id": "1999-025DYJ",
        "meta_epoch": "2025-12-25T07:40:17.608800",
        "meta_mean_motion": 14.17962242,
        "meta_eccentricity": 0.0173436,
        "meta_inclination": 98.6033,
        "meta_ra_of_asc_node": 23.5414,
        "meta_arg_of_pericenter": 63.6768,
        "meta_mean_anomaly": 298.2106,
        "meta_ephemeris_type": 0,
        "meta_classification_type": "U",
        "meta_norad_cat_id": 36664,
        "meta_element_set_no": 999,
        "meta_rev_at_epoch": 63929,
        "meta_bstar": 9.6408e-05,
        "meta_mean_motion_dot": 1.87e-06,
        "meta_mean_motion_ddot": 0,
        "tle_line1": "1 36664U 99025DYJ 25359.31964825  .00000187  00000+0  96408-4 0  9998",
        "tle_line2": "2 36664  98.6033  23.5414 0173436  63.6768 298.2106 14.17962242639290"
      },
      "geometry": {
        "type": "Point",
        "coordinates": [
          -149.25079077214372,
          35.00666691559543
        ]
      }
    },
    {
      "type": "Feature",
      "properties": {
        "norad_id": 36668,
        "name": "FENGYUN 1C DEB",
        "group": "fengyun-1c-debris",
        "lat": 4.037383542744854,
        "lon": 9.767221315095561,
        "alt_km": 880.3611804497141,
        "timestamp": "2025-12-26T11:25:45.481695+00:00",
        "meta_object_name": "FENGYUN 1C DEB",
        "meta_object_id": "1999-025DYN",
        "meta_epoch": "2025-12-25T06:34:05.412864",
        "meta_mean_motion": 14.15422045,
        "meta_eccentricity": 0.0051464,
        "meta_inclination": 98.6094,
        "meta_ra_of_asc_node": 9.2188,
        "meta_arg_of_pericenter": 190.1122,
        "meta_mean_anomaly": 169.9022,
        "meta_ephemeris_type": 0,
        "meta_classification_type": "U",
        "meta_norad_cat_id": 36668,
        "meta_element_set_no": 999,
        "meta_rev_at_epoch": 57595,
        "meta_bstar": 0.00055657,
        "meta_mean_motion_dot": 1.058e-05,
        "meta_mean_motion_ddot": 0,
        "tle_line1": "1 36668U 99025DYN 25359.27367376  .00001058  00000+0  55657-3 0  9993",
        "tle_line2": "2 36668  98.6094   9.2188 0051464 190.1122 169.9022 14.15422045575959"
      },
      "geometry": {
        "type": "Point",
        "coordinates": [
          9.767221315095561,
          4.037383542744854
        ]
      }
    }
  ]
}